<?xml version="1.0" encoding="UTF-8"?>
<ndm xmlns:xsi="http://www.w3.org/2001/XMLSchema-instance" xsi:noNamespaceSchemaLocation="https://sanaregistry.org/r/ndmxml_unqualified/ndmxml-2.0.0-master-2.0.xsd">
<omm id="CCSDS_OMM_VERS" version="2.0">
<header><CREATION_DATE/><ORIGINATOR/></header><body><segment><metadata><OBJECT_NAME>ONEWEB-0309</OBJECT_NAME><OBJECT_ID>2021-075W</OBJECT_ID><CENTER_NAME>EARTH</CENTER_NAME><REF_FRAME>TEME</REF_FRAME><TIME_SYSTEM>UTC</TIME_SYSTEM><MEAN_ELEMENT_THEORY>SGP4</MEAN_ELEMENT_THEORY></metadata><data><meanElements><EPOCH>2025-07-29T15:56:13.078464</EPOCH><MEAN_MOTION>13.17650422</MEAN_MOTION><ECCENTRICITY>.000156</ECCENTRICITY><INCLINATION>87.9035</INCLINATION><RA_OF_ASC_NODE>70.0508</RA_OF_ASC_NODE><ARG_OF_PERICENTER>68.5174</ARG_OF_PERICENTER><MEAN_ANOMALY>291.6124</MEAN_ANOMALY></meanElements><tleParameters><EPHEMERIS_TYPE>0</EPHEMERIS_TYPE><CLASSIFICATION_TYPE>U</CLASSIFICATION_TYPE><NORAD_CAT_ID>49095</NORAD_CAT_ID><ELEMENT_SET_NO>999</ELEMENT_SET_NO><REV_AT_EPOCH>19110</REV_AT_EPOCH><BSTAR>.76575E-4</BSTAR><MEAN_MOTION_DOT>.43E-6</MEAN_MOTION_DOT><MEAN_MOTION_DDOT>0</MEAN_MOTION_DDOT></tleParameters></data></segment></body></omm>
<omm id="CCSDS_OMM_VERS" version="2.0">
<header><CREATION_DATE/><ORIGINATOR/></header><body><segment><metadata><OBJECT_NAME>ONEWEB-0310</OBJECT_NAME><OBJECT_ID>2021-075X</OBJECT_ID><CENTER_NAME>EARTH</CENTER_NAME><REF_FRAME>TEME</REF_FRAME><TIME_SYSTEM>UTC</TIME_SYSTEM><MEAN_ELEMENT_THEORY>SGP4</MEAN_ELEMENT_THEORY></metadata><data><meanElements><EPOCH>2025-07-29T19:52:50.967552</EPOCH><MEAN_MOTION>13.12442978</MEAN_MOTION><ECCENTRICITY>.0001701</ECCENTRICITY><INCLINATION>87.8854</INCLINATION><RA_OF_ASC_NODE>54.7849</RA_OF_ASC_NODE><ARG_OF_PERICENTER>82.7917</ARG_OF_PERICENTER><MEAN_ANOMALY>277.3405</MEAN_ANOMALY></meanElements><tleParameters><EPHEMERIS_TYPE>0</EPHEMERIS_TYPE><CLASSIFICATION_TYPE>U</CLASSIFICATION_TYPE><NORAD_CAT_ID>49096</NORAD_CAT_ID><ELEMENT_SET_NO>999</ELEMENT_SET_NO><REV_AT_EPOCH>19290</REV_AT_EPOCH><BSTAR>-.9888E-3</BSTAR><MEAN_MOTION_DOT>-.343E-5</MEAN_MOTION_DOT><MEAN_MOTION_DDOT>0</MEAN_MOTION_DDOT></tleParameters></data></segment></body></omm>
<omm id="CCSDS_OMM_VERS" version="2.0">
<header><CREATION_DATE/><ORIGINATOR/></header><body><segment><metadata><OBJECT_NAME>ONEWEB-0311</OBJECT_NAME><OBJECT_ID>2021-075Y</OBJECT_ID><CENTER_NAME>EARTH</CENTER_NAME><REF_FRAME>TEME</REF_FRAME><TIME_SYSTEM>UTC</TIME_SYSTEM><MEAN_ELEMENT_THEORY>SGP4</MEAN_ELEMENT_THEORY></metadata><data><meanElements><EPOCH>2025-07-29T21:33:59.306976</EPOCH><MEAN_MOTION>13.17648352</MEAN_MOTION><ECCENTRICITY>.0001502</ECCENTRICITY><INCLINATION>87.9032</INCLINATION><RA_OF_ASC_NODE>70.0045</RA_OF_ASC_NODE><ARG_OF_PERICENTER>94.2735</ARG_OF_PERICENTER><MEAN_ANOMALY>265.8568</MEAN_ANOMALY></meanElements><tleParameters><EPHEMERIS_TYPE>0</EPHEMERIS_TYPE><CLASSIFICATION_TYPE>U</CLASSIFICATION_TYPE><NORAD_CAT_ID>49097</NORAD_CAT_ID><ELEMENT_SET_NO>999</ELEMENT_SET_NO><REV_AT_EPOCH>19118</REV_AT_EPOCH><BSTAR>.19462E-3</BSTAR><MEAN_MOTION_DOT>.88E-6</MEAN_MOTION_DOT><MEAN_MOTION_DDOT>0</MEAN_MOTION_DDOT></tleParameters></data></segment></body></omm>
<omm id="CCSDS_OMM_VERS" version="2.0">
<header><CREATION_DATE/><ORIGINATOR/></header><body><segment><metadata><OBJECT_NAME>ONEWEB-0312</OBJECT_NAME><OBJECT_ID>2021-075Z</OBJECT_ID><CENTER_NAME>EARTH</CENTER_NAME><REF_FRAME>TEME</REF_FRAME><TIME_SYSTEM>UTC</TIME_SYSTEM><MEAN_ELEMENT_THEORY>SGP4</MEAN_ELEMENT_THEORY></metadata><data><meanElements><EPOCH>2025-07-29T20:06:31.790880</EPOCH><MEAN_MOTION>13.17649675</MEAN_MOTION><ECCENTRICITY>.0001379</ECCENTRICITY><INCLINATION>87.9034</INCLINATION><RA_OF_ASC_NODE>70.0479</RA_OF_ASC_NODE><ARG_OF_PERICENTER>82.3989</ARG_OF_PERICENTER><MEAN_ANOMALY>277.7299</MEAN_ANOMALY></meanElements><tleParameters><EPHEMERIS_TYPE>0</EPHEMERIS_TYPE><CLASSIFICATION_TYPE>U</CLASSIFICATION_TYPE><NORAD_CAT_ID>49098</NORAD_CAT_ID><ELEMENT_SET_NO>999</ELEMENT_SET_NO><REV_AT_EPOCH>19115</REV_AT_EPOCH><BSTAR>.22805E-3</BSTAR><MEAN_MOTION_DOT>.101E-5</MEAN_MOTION_DOT><MEAN_MOTION_DDOT>0</MEAN_MOTION_DDOT></tleParameters></data></segment></body></omm>
<omm id="CCSDS_OMM_VERS" version="2.0">
<header><CREATION_DATE/><ORIGINATOR/></header><body><segment><metadata><OBJECT_NAME>ONEWEB-0313</OBJECT_NAME><OBJECT_ID>2021-075AA</OBJECT_ID><CENTER_NAME>EARTH</CENTER_NAME><REF_FRAME>TEME</REF_FRAME><TIME_SYSTEM>UTC</TIME_SYSTEM><MEAN_ELEMENT_THEORY>SGP4</MEAN_ELEMENT_THEORY></metadata><data><meanElements><EPOCH>2025-07-29T20:13:36.246432</EPOCH><MEAN_MOTION>13.17651003</MEAN_MOTION><ECCENTRICITY>.0001774</ECCENTRICITY><INCLINATION>87.9028</INCLINATION><RA_OF_ASC_NODE>70.0615</RA_OF_ASC_NODE><ARG_OF_PERICENTER>87.2652</ARG_OF_PERICENTER><MEAN_ANOMALY>272.8682</MEAN_ANOMALY></meanElements><tleParameters><EPHEMERIS_TYPE>0</EPHEMERIS_TYPE><CLASSIFICATION_TYPE>U</CLASSIFICATION_TYPE><NORAD_CAT_ID>49099</NORAD_CAT_ID><ELEMENT_SET_NO>999</ELEMENT_SET_NO><REV_AT_EPOCH>19114</REV_AT_EPOCH><BSTAR>.18492E-3</BSTAR><MEAN_MOTION_DOT>.85E-6</MEAN_MOTION_DOT><MEAN_MOTION_DDOT>0</MEAN_MOTION_DDOT></tleParameters></data></segment></body></omm>
<omm id="CCSDS_OMM_VERS" version="2.0">
<header><CREATION_DATE/><ORIGINATOR/></header><body><segment><metadata><OBJECT_NAME>ONEWEB-0314</OBJECT_NAME><OBJECT_ID>2021-075AB</OBJECT_ID><CENTER_NAME>EARTH</CENTER_NAME><REF_FRAME>TEME</REF_FRAME><TIME_SYSTEM>UTC</TIME_SYSTEM><MEAN_ELEMENT_THEORY>SGP4</MEAN_ELEMENT_THEORY></metadata><data><meanElements><EPOCH>2025-07-29T21:14:34.495008</EPOCH><MEAN_MOTION>13.17649148</MEAN_MOTION><ECCENTRICITY>.0001373</ECCENTRICITY><INCLINATION>87.9037</INCLINATION><RA_OF_ASC_NODE>69.9857</RA_OF_ASC_NODE><ARG_OF_PERICENTER>84.3990</ARG_OF_PERICENTER><MEAN_ANOMALY>275.7298</MEAN_ANOMALY></meanElements><tleParameters><EPHEMERIS_TYPE>0</EPHEMERIS_TYPE><CLASSIFICATION_TYPE>U</CLASSIFICATION_TYPE><NORAD_CAT_ID>49100</NORAD_CAT_ID><ELEMENT_SET_NO>999</ELEMENT_SET_NO><REV_AT_EPOCH>19112</REV_AT_EPOCH><BSTAR>-.90787E-4</BSTAR><MEAN_MOTION_DOT>-.22E-6</MEAN_MOTION_DOT><MEAN_MOTION_DDOT>0</MEAN_MOTION_DDOT></tleParameters></data></segment></body></omm>
<omm id="CCSDS_OMM_VERS" version="2.0">
<header><CREATION_DATE/><ORIGINATOR/></header><body><segment><metadata><OBJECT_NAME>ONEWEB-0315</OBJECT_NAME><OBJECT_ID>2021-075AC</OBJECT_ID><CENTER_NAME>EARTH</CENTER_NAME><REF_FRAME>TEME</REF_FRAME><TIME_SYSTEM>UTC</TIME_SYSTEM><MEAN_ELEMENT_THEORY>SGP4</MEAN_ELEMENT_THEORY></metadata><data><meanElements><EPOCH>2025-07-29T19:15:29.399904</EPOCH><MEAN_MOTION>13.12442645</MEAN_MOTION><ECCENTRICITY>.00017</ECCENTRICITY><INCLINATION>87.8853</INCLINATION><RA_OF_ASC_NODE>54.7353</RA_OF_ASC_NODE><ARG_OF_PERICENTER>99.3954</ARG_OF_PERICENTER><MEAN_ANOMALY>260.7367</MEAN_ANOMALY></meanElements><tleParameters><EPHEMERIS_TYPE>0</EPHEMERIS_TYPE><CLASSIFICATION_TYPE>U</CLASSIFICATION_TYPE><NORAD_CAT_ID>49101</NORAD_CAT_ID><ELEMENT_SET_NO>999</ELEMENT_SET_NO><REV_AT_EPOCH>19288</REV_AT_EPOCH><BSTAR>.58809E-3</BSTAR><MEAN_MOTION_DOT>.224E-5</MEAN_MOTION_DOT><MEAN_MOTION_DDOT>0</MEAN_MOTION_DDOT></tleParameters></data></segment></body></omm>
<omm id="CCSDS_OMM_VERS" version="2.0">
<header><CREATION_DATE/><ORIGINATOR/></header><body><segment><metadata><OBJECT_NAME>ONEWEB-0316</OBJECT_NAME><OBJECT_ID>2021-075AD</OBJECT_ID><CENTER_NAME>EARTH</CENTER_NAME><REF_FRAME>TEME</REF_FRAME><TIME_SYSTEM>UTC</TIME_SYSTEM><MEAN_ELEMENT_THEORY>SGP4</MEAN_ELEMENT_THEORY></metadata><data><meanElements><EPOCH>2025-07-29T21:52:22.641024</EPOCH><MEAN_MOTION>13.18686180</MEAN_MOTION><ECCENTRICITY>.0001801</ECCENTRICITY><INCLINATION>87.9125</INCLINATION><RA_OF_ASC_NODE>39.4860</RA_OF_ASC_NODE><ARG_OF_PERICENTER>96.2032</ARG_OF_PERICENTER><MEAN_ANOMALY>263.9305</MEAN_ANOMALY></meanElements><tleParameters><EPHEMERIS_TYPE>0</EPHEMERIS_TYPE><CLASSIFICATION_TYPE>U</CLASSIFICATION_TYPE><NORAD_CAT_ID>49102</NORAD_CAT_ID><ELEMENT_SET_NO>999</ELEMENT_SET_NO><REV_AT_EPOCH>19473</REV_AT_EPOCH><BSTAR>-.76704E-5</BSTAR><MEAN_MOTION_DOT>.1E-6</MEAN_MOTION_DOT><MEAN_MOTION_DDOT>0</MEAN_MOTION_DDOT></tleParameters></data></segment></body></omm>
<omm id="CCSDS_OMM_VERS" version="2.0">
<header><CREATION_DATE/><ORIGINATOR/></header><body><segment><metadata><OBJECT_NAME>ONEWEB-0317</OBJECT_NAME><OBJECT_ID>2021-075AE</OBJECT_ID><CENTER_NAME>EARTH</CENTER_NAME><REF_FRAME>TEME</REF_FRAME><TIME_SYSTEM>UTC</TIME_SYSTEM><MEAN_ELEMENT_THEORY>SGP4</MEAN_ELEMENT_THEORY></metadata><data><meanElements><EPOCH>2025-07-29T22:45:42.690528</EPOCH><MEAN_MOTION>13.12442672</MEAN_MOTION><ECCENTRICITY>.0001953</ECCENTRICITY><INCLINATION>87.8850</INCLINATION><RA_OF_ASC_NODE>54.7213</RA_OF_ASC_NODE><ARG_OF_PERICENTER>61.2407</ARG_OF_PERICENTER><MEAN_ANOMALY>298.8917</MEAN_ANOMALY></meanElements><tleParameters><EPHEMERIS_TYPE>0</EPHEMERIS_TYPE><CLASSIFICATION_TYPE>U</CLASSIFICATION_TYPE><NORAD_CAT_ID>49103</NORAD_CAT_ID><ELEMENT_SET_NO>999</ELEMENT_SET_NO><REV_AT_EPOCH>19292</REV_AT_EPOCH><BSTAR>.95241E-3</BSTAR><MEAN_MOTION_DOT>.355E-5</MEAN_MOTION_DOT><MEAN_MOTION_DDOT>0</MEAN_MOTION_DDOT></tleParameters></data></segment></body></omm>

</ndm>
